{
    "links": {
        "self": "http://www.neowsapp.com/rest/v1/neo/3713936?api_key=iIulBulltgU6a56xZRHN4H3l9WmuAYTsLGpBGhQ2"
    },
    "id": "3713936",
    "neo_reference_id": "3713936",
    "name": "(2015 FT33)",
    "designation": "2015 FT33",
    "nasa_jpl_url": "http://ssd.jpl.nasa.gov/sbdb.cgi?sstr=3713936",
    "absolute_magnitude_h": 24.3,
    "estimated_diameter": {
        "kilometers": {
            "estimated_diameter_min": 0.0366906138,
            "estimated_diameter_max": 0.0820427065
        },
        "meters": {
            "estimated_diameter_min": 36.6906137531,
            "estimated_diameter_max": 82.0427064882
        },
        "miles": {
            "estimated_diameter_min": 0.0227984834,
            "estimated_diameter_max": 0.0509789586
        },
        "feet": {
            "estimated_diameter_min": 120.3760332259,
            "estimated_diameter_max": 269.1689931548
        }
    },
    "is_potentially_hazardous_asteroid": false,
    "close_approach_data": [
        {
            "close_approach_date": "2015-05-01",
            "close_approach_date_full": "2015-May-01 07:06",
            "epoch_date_close_approach": 1430463960000,
            "relative_velocity": {
                "kilometers_per_second": "5.5463419546",
                "kilometers_per_hour": "19966.8310366813",
                "miles_per_hour": "12406.6123183201"
            },
            "miss_distance": {
                "astronomical": "0.0841889264",
                "lunar": "32.7494923696",
                "kilometers": "12594484.067026768",
                "miles": "7825849.5097866784"
            },
            "orbiting_body": "Earth"
        },
        {
            "close_approach_date": "2156-09-09",
            "close_approach_date_full": "2156-Sep-09 08:45",
            "epoch_date_close_approach": 5891388300000,
            "relative_velocity": {
                "kilometers_per_second": "12.2277480985",
                "kilometers_per_hour": "44019.8931546731",
                "miles_per_hour": "27352.2497215801"
            },
            "miss_distance": {
                "astronomical": "0.0860895536",
                "lunar": "33.4888363504",
                "kilometers": "12878813.847810832",
                "miles": "8002523.8430682016"
            },
            "orbiting_body": "Mars"
        }
    ],
    "orbital_data": {
        "orbit_id": "7",
        "orbit_determination_date": "2017-04-06 08:35:01",
        "first_observation_date": "2015-03-18",
        "last_observation_date": "2015-03-28",
        "data_arc_in_days": 10,
        "observations_used": 21,
        "orbit_uncertainty": "8",
        "minimum_orbit_intersection": ".0772117",
        "jupiter_tisserand_invariant": "4.164",
        "epoch_osculation": "2457100.5",
        "eccentricity": ".3932695274113909",
        "semi_major_axis": "1.663668463050406",
        "inclination": "4.962750626691077",
        "ascending_node_longitude": "327.6813763416368",
        "orbital_period": "783.7879873099145",
        "perihelion_distance": "1.009398352817338",
        "perihelion_argument": "256.8603845455301",
        "aphelion_distance": "2.317938573283475",
        "perihelion_time": "2457148.019773092610",
        "mean_anomaly": "338.1737936912583",
        "mean_motion": ".4593078815045092",
        "equinox": "J2000",
        "orbit_class": {
            "orbit_class_type": "APO",
            "orbit_class_description": "Near-Earth asteroid orbits which cross the Earth’s orbit similar to that of 1862 Apollo",
            "orbit_class_range": "a (semi-major axis) > 1.0 AU; q (perihelion) < 1.017 AU"
        }
    },
    "is_sentry_object": false
}